{"spkid": "54256783", "covariance": {"epoch": "2460436.5", "elements": [{"value": ".5458246717116317", "title": "eccentricity", "units": null, "sigma": 2.48959976956985e-08, "name": "e", "label": "e"}, {"name": "q", "sigma": 5.86591208957445e-08, "units": "au", "value": ".9386501972256692", "title": "perihelion distance", "label": "q"}, {"label": "tp", "sigma": 1.69927505997436e-05, "name": "tp", "units": "TDB", "title": "time of perihelion passage", "value": "2460707.837172781292"}, {"label": "node", "sigma": 3.79140931469591e-05, "name": "om", "units": "deg", "title": "longitude of the ascending node", "value": "83.29805858423059"}, {"label": "peri", "sigma": 4.50756792592073e-05, "name": "w", "value": "53.68510628049511", "title": "argument of perihelion", "units": "deg"}, {"sigma": 1.01095550159677e-05, "name": "i", "units": "deg", "title": "inclination", "value": "3.951598848429047", "label": "i"}], "data": [["6.198107012642247E-16", "-1.456672833483741E-15", "-2.038554005018713E-13", "1.387020190210334E-13", "-1.620224120254045E-13", "-1.346559693929261E-13"], ["-1.456672833483741E-15", "3.440892464261567E-15", "5.164691128348574E-13", "-3.517117898146535E-13", "4.297430284357538E-13", "3.310709120748443E-13"], ["-2.038554005018713E-13", "5.164691128348574E-13", "2.887535729450857E-10", "-3.429226328256007E-10", "5.212288515600934E-10", "1.453970891301719E-11"], ["1.387020190210334E-13", "-3.517117898146535E-13", "-3.429226328256007E-10", "1.43747845915629E-9", "-1.664811276551161E-9", "1.199647316635268E-10"], ["-1.620224120254045E-13", "4.297430284357538E-13", "5.212288515600934E-10", "-1.664811276551161E-9", "2.031816860678932E-9", "-1.438784634285696E-10"], ["-1.346559693929261E-13", "3.310709120748443E-13", "1.453970891301719E-11", "1.199647316635268E-10", "-1.438784634285696E-10", "1.022031026208785E-10"]], "labels": ["e", "q", "tp", "node", "peri", "i"]}, "elements": [{"label": "e", "units": null, "value": ".5461137937085", "title": "eccentricity", "sigma": "2.5714E-8", "name": "e"}, {"sigma": "1.3334E-8", "name": "a", "title": "semi-major axis", "value": "2.06864744753515", "units": "au", "label": "a"}, {"name": "q", "sigma": "5.8453E-8", "title": "perihelion distance", "value": ".938930542116324", "units": "au", "label": "q"}, {"label": "i", "sigma": "1.0131E-5", "name": "i", "units": "deg", "value": "3.934905095517409", "title": "inclination; angle with respect to x-y ecliptic plane"}, {"units": "deg", "value": "83.13550281788507", "title": "longitude of the ascending node", "sigma": "3.8136E-5", "name": "om", "label": "node"}, {"title": "argument of perihelion", "value": "53.79690348107068", "units": "deg", "sigma": "4.5307E-5", "name": "w", "label": "peri"}, {"name": "ma", "sigma": "6.76E-6", "title": "mean anomaly", "value": "163.1963714072615", "units": "deg", "label": "M"}, {"name": "tp", "sigma": "1.7061E-5", "value": "2460707.852654798843", "title": "time of perihelion passage", "units": "TDB", "label": "tp"}, {"label": "period", "title": "sidereal orbital period", "value": "1086.746247744851", "units": "d", "sigma": "1.0507E-5", "name": "per"}, {"name": "n", "sigma": "3.2028E-9", "units": "deg/d", "title": "mean motion", "value": ".3312640837242825", "label": "n"}, {"label": "Q", "name": "ad", "sigma": "2.0616E-8", "value": "3.198364352953975", "title": "aphelion distance", "units": "au"}], "epoch": "2461200.5"}